[Satellite]
VERSION=1.1
NAME=CZ-6A DEB
NICKNAME=CZ-6A DEB
TLE1=1 54477U 22151HD  22342.30932522  .00022568  00000+0  67020-2 0  9996
TLE2=2 54477  98.5586 346.3611 0132411 222.7732 136.3092 14.38228507  3525
STATUS=0
